STARLINK-35422          
1 66068U 25235L   25317.55576172  .00152648  00000+0  27021-2 0  9998
2 66068  53.1599  66.6245 0001046 107.3506 252.7618 15.49280033  5081
STARLINK-35279          
1 66069U 25235M   25317.55541881  .00097530  00000+0  17347-2 0  9996
2 66069  53.1600  66.6221 0001357  44.4707 315.6411 15.49393097  5117
STARLINK-35295          
1 66070U 25235N   25317.55473278  .00173747  00000+0  30649-2 0  9997
2 66070  53.1600  66.6184 0000896  90.5599 269.5513 15.49291559  5115
STARLINK-35323          
1 66071U 25235P   25317.55507606  .00128954  00000+0  22918-2 0  9991
2 66071  53.1602  66.6195 0001104  79.8199 280.2935 15.49268838  5111
STARLINK-35299          
1 66072U 25235Q   25317.58335648 -.00156928  00000+0 -39936-2 0  9992
2 66072  53.1606  66.6468 0001119  69.5179   7.2061 15.39626126  5180
STARLINK-35274          
1 66073U 25235R   25317.58335648 -.00537209  00000+0 -14202-1 0  9996
2 66073  53.1603  66.5955 0001282  65.3923  36.8411 15.40018055  5185
STARLINK-35321          
1 66074U 25235S   25317.58335648  .00095308  00000+0  23697-2 0  9993
2 66074  53.1600  66.5435 0001463  93.6490  34.4564 15.39533940  5186
STARLINK-35131          
1 66075U 25235T   25317.55269607  .00183717  00000+0  32391-2 0  9995
2 66075  53.1598  66.6020 0000791 137.7425 222.3645 15.49265474  5111
STARLINK-34801          
1 66076U 25235U   25317.58335648 -.02067705  00000+0 -52526-1 0  9991
2 66076  53.1594  66.4998 0001407  55.6757  94.3998 15.42719834  5183
STARLINK-35129          
1 66077U 25235V   25317.58335648 -.02065774  00000+0 -47256-1 0  9990
2 66077  53.1600  66.4713 0001407  64.3199 100.1787 15.45773255  5197
STARLINK-35116          
1 66078U 25235W   25317.48747075  .00112967  00000+0  20130-2 0  9997
2 66078  53.1599  66.9051 0001254 123.5551 236.5578 15.49266011  5109
STARLINK-35402          
1 66079U 25235X   25317.55163962  .00138545  00000+0  24585-2 0  9991
2 66079  53.1597  66.5950 0001216 119.2335 240.8796 15.49270406  5116
