CCSDS_OMM_VERS = 2.0
CREATION_DATE  = 
ORIGINATOR     = 

OBJECT_NAME    = STARLINK-35422
OBJECT_ID      = 2025-235L
CENTER_NAME    = EARTH
REF_FRAME      = TEME
TIME_SYSTEM    = UTC
MEAN_ELEMENT_THEORY = SGP/SGP4

EPOCH          = 2025-11-13T13:20:17.812608
MEAN_MOTION    = 15.49280033
ECCENTRICITY   = .00010464
INCLINATION    = 53.1599
RA_OF_ASC_NODE = 66.6245
ARG_OF_PERICENTER = 107.3506
MEAN_ANOMALY   = 252.7618

EPHEMERIS_TYPE = 0
CLASSIFICATION_TYPE = U
NORAD_CAT_ID   = 66068
ELEMENT_SET_NO = 999
REV_AT_EPOCH   = 508
BSTAR          = .27021156E-2
MEAN_MOTION_DOT = .152648E-2
MEAN_MOTION_DDOT = 0

CCSDS_OMM_VERS = 2.0
CREATION_DATE  = 
ORIGINATOR     = 

OBJECT_NAME    = STARLINK-35279
OBJECT_ID      = 2025-235M
CENTER_NAME    = EARTH
REF_FRAME      = TEME
TIME_SYSTEM    = UTC
MEAN_ELEMENT_THEORY = SGP/SGP4

EPOCH          = 2025-11-13T13:19:48.185184
MEAN_MOTION    = 15.49393097
ECCENTRICITY   = .00013578
INCLINATION    = 53.1600
RA_OF_ASC_NODE = 66.6221
ARG_OF_PERICENTER = 44.4707
MEAN_ANOMALY   = 315.6411

EPHEMERIS_TYPE = 0
CLASSIFICATION_TYPE = U
NORAD_CAT_ID   = 66069
ELEMENT_SET_NO = 999
REV_AT_EPOCH   = 511
BSTAR          = .17346992E-2
MEAN_MOTION_DOT = .9753E-3
MEAN_MOTION_DDOT = 0

CCSDS_OMM_VERS = 2.0
CREATION_DATE  = 
ORIGINATOR     = 

OBJECT_NAME    = STARLINK-35295
OBJECT_ID      = 2025-235N
CENTER_NAME    = EARTH
REF_FRAME      = TEME
TIME_SYSTEM    = UTC
MEAN_ELEMENT_THEORY = SGP/SGP4

EPOCH          = 2025-11-13T13:18:48.912192
MEAN_MOTION    = 15.49291559
ECCENTRICITY   = .00008968
INCLINATION    = 53.1600
RA_OF_ASC_NODE = 66.6184
ARG_OF_PERICENTER = 90.5599
MEAN_ANOMALY   = 269.5513

EPHEMERIS_TYPE = 0
CLASSIFICATION_TYPE = U
NORAD_CAT_ID   = 66070
ELEMENT_SET_NO = 999
REV_AT_EPOCH   = 511
BSTAR          = .30649108E-2
MEAN_MOTION_DOT = .173747E-2
MEAN_MOTION_DDOT = 0

CCSDS_OMM_VERS = 2.0
CREATION_DATE  = 
ORIGINATOR     = 

OBJECT_NAME    = STARLINK-35323
OBJECT_ID      = 2025-235P
CENTER_NAME    = EARTH
REF_FRAME      = TEME
TIME_SYSTEM    = UTC
MEAN_ELEMENT_THEORY = SGP/SGP4

EPOCH          = 2025-11-13T13:19:18.571584
MEAN_MOTION    = 15.49268838
ECCENTRICITY   = .00011046
INCLINATION    = 53.1602
RA_OF_ASC_NODE = 66.6195
ARG_OF_PERICENTER = 79.8199
MEAN_ANOMALY   = 280.2935

EPHEMERIS_TYPE = 0
CLASSIFICATION_TYPE = U
NORAD_CAT_ID   = 66071
ELEMENT_SET_NO = 999
REV_AT_EPOCH   = 511
BSTAR          = .22918066E-2
MEAN_MOTION_DOT = .128954E-2
MEAN_MOTION_DDOT = 0

CCSDS_OMM_VERS = 2.0
CREATION_DATE  = 
ORIGINATOR     = 

OBJECT_NAME    = STARLINK-35299
OBJECT_ID      = 2025-235Q
CENTER_NAME    = EARTH
REF_FRAME      = TEME
TIME_SYSTEM    = UTC
MEAN_ELEMENT_THEORY = SGP/SGP4

EPOCH          = 2025-11-13T14:00:01.999872
MEAN_MOTION    = 15.39626126
ECCENTRICITY   = .00011193
INCLINATION    = 53.1606
RA_OF_ASC_NODE = 66.6468
ARG_OF_PERICENTER = 69.5179
MEAN_ANOMALY   = 7.2061

EPHEMERIS_TYPE = 0
CLASSIFICATION_TYPE = U
NORAD_CAT_ID   = 66072
ELEMENT_SET_NO = 999
REV_AT_EPOCH   = 518
BSTAR          = -.39936201E-2
MEAN_MOTION_DOT = -.156928E-2
MEAN_MOTION_DDOT = 0

CCSDS_OMM_VERS = 2.0
CREATION_DATE  = 
ORIGINATOR     = 

OBJECT_NAME    = STARLINK-35274
OBJECT_ID      = 2025-235R
CENTER_NAME    = EARTH
REF_FRAME      = TEME
TIME_SYSTEM    = UTC
MEAN_ELEMENT_THEORY = SGP/SGP4

EPOCH          = 2025-11-13T14:00:01.999872
MEAN_MOTION    = 15.40018055
ECCENTRICITY   = .00012826
INCLINATION    = 53.1603
RA_OF_ASC_NODE = 66.5955
ARG_OF_PERICENTER = 65.3923
MEAN_ANOMALY   = 36.8411

EPHEMERIS_TYPE = 0
CLASSIFICATION_TYPE = U
NORAD_CAT_ID   = 66073
ELEMENT_SET_NO = 999
REV_AT_EPOCH   = 518
BSTAR          = -.14202315E-1
MEAN_MOTION_DOT = -.537209E-2
MEAN_MOTION_DDOT = 0

CCSDS_OMM_VERS = 2.0
CREATION_DATE  = 
ORIGINATOR     = 

OBJECT_NAME    = STARLINK-35321
OBJECT_ID      = 2025-235S
CENTER_NAME    = EARTH
REF_FRAME      = TEME
TIME_SYSTEM    = UTC
MEAN_ELEMENT_THEORY = SGP/SGP4

EPOCH          = 2025-11-13T14:00:01.999872
MEAN_MOTION    = 15.39533940
ECCENTRICITY   = .00014636
INCLINATION    = 53.1600
RA_OF_ASC_NODE = 66.5435
ARG_OF_PERICENTER = 93.6490
MEAN_ANOMALY   = 34.4564

EPHEMERIS_TYPE = 0
CLASSIFICATION_TYPE = U
NORAD_CAT_ID   = 66074
ELEMENT_SET_NO = 999
REV_AT_EPOCH   = 518
BSTAR          = .23696847E-2
MEAN_MOTION_DOT = .95308E-3
MEAN_MOTION_DDOT = 0

CCSDS_OMM_VERS = 2.0
CREATION_DATE  = 
ORIGINATOR     = 

OBJECT_NAME    = STARLINK-35131
OBJECT_ID      = 2025-235T
CENTER_NAME    = EARTH
REF_FRAME      = TEME
TIME_SYSTEM    = UTC
MEAN_ELEMENT_THEORY = SGP/SGP4

EPOCH          = 2025-11-13T13:15:52.940448
MEAN_MOTION    = 15.49265474
ECCENTRICITY   = .00007912
INCLINATION    = 53.1598
RA_OF_ASC_NODE = 66.6020
ARG_OF_PERICENTER = 137.7425
MEAN_ANOMALY   = 222.3645

EPHEMERIS_TYPE = 0
CLASSIFICATION_TYPE = U
NORAD_CAT_ID   = 66075
ELEMENT_SET_NO = 999
REV_AT_EPOCH   = 511
BSTAR          = .32391235E-2
MEAN_MOTION_DOT = .183717E-2
MEAN_MOTION_DDOT = 0

CCSDS_OMM_VERS = 2.0
CREATION_DATE  = 
ORIGINATOR     = 

OBJECT_NAME    = STARLINK-34801
OBJECT_ID      = 2025-235U
CENTER_NAME    = EARTH
REF_FRAME      = TEME
TIME_SYSTEM    = UTC
MEAN_ELEMENT_THEORY = SGP/SGP4

EPOCH          = 2025-11-13T14:00:01.999872
MEAN_MOTION    = 15.42719834
ECCENTRICITY   = .00014078
INCLINATION    = 53.1594
RA_OF_ASC_NODE = 66.4998
ARG_OF_PERICENTER = 55.6757
MEAN_ANOMALY   = 94.3998

EPHEMERIS_TYPE = 0
CLASSIFICATION_TYPE = U
NORAD_CAT_ID   = 66076
ELEMENT_SET_NO = 999
REV_AT_EPOCH   = 518
BSTAR          = -.5252609E-1
MEAN_MOTION_DOT = -.2067705E-1
MEAN_MOTION_DDOT = 0

CCSDS_OMM_VERS = 2.0
CREATION_DATE  = 
ORIGINATOR     = 

OBJECT_NAME    = STARLINK-35129
OBJECT_ID      = 2025-235V
CENTER_NAME    = EARTH
REF_FRAME      = TEME
TIME_SYSTEM    = UTC
MEAN_ELEMENT_THEORY = SGP/SGP4

EPOCH          = 2025-11-13T14:00:01.999872
MEAN_MOTION    = 15.45773255
ECCENTRICITY   = .00014076
INCLINATION    = 53.1600
RA_OF_ASC_NODE = 66.4713
ARG_OF_PERICENTER = 64.3199
MEAN_ANOMALY   = 100.1787

EPHEMERIS_TYPE = 0
CLASSIFICATION_TYPE = U
NORAD_CAT_ID   = 66077
ELEMENT_SET_NO = 999
REV_AT_EPOCH   = 519
BSTAR          = -.47255694E-1
MEAN_MOTION_DOT = -.2065774E-1
MEAN_MOTION_DDOT = 0

CCSDS_OMM_VERS = 2.0
CREATION_DATE  = 
ORIGINATOR     = 

OBJECT_NAME    = STARLINK-35116
OBJECT_ID      = 2025-235W
CENTER_NAME    = EARTH
REF_FRAME      = TEME
TIME_SYSTEM    = UTC
MEAN_ELEMENT_THEORY = SGP/SGP4

EPOCH          = 2025-11-13T11:41:57.472800
MEAN_MOTION    = 15.49266011
ECCENTRICITY   = .00012549
INCLINATION    = 53.1599
RA_OF_ASC_NODE = 66.9051
ARG_OF_PERICENTER = 123.5551
MEAN_ANOMALY   = 236.5578

EPHEMERIS_TYPE = 0
CLASSIFICATION_TYPE = U
NORAD_CAT_ID   = 66078
ELEMENT_SET_NO = 999
REV_AT_EPOCH   = 510
BSTAR          = .20130018E-2
MEAN_MOTION_DOT = .112967E-2
MEAN_MOTION_DDOT = 0

CCSDS_OMM_VERS = 2.0
CREATION_DATE  = 
ORIGINATOR     = 

OBJECT_NAME    = STARLINK-35402
OBJECT_ID      = 2025-235X
CENTER_NAME    = EARTH
REF_FRAME      = TEME
TIME_SYSTEM    = UTC
MEAN_ELEMENT_THEORY = SGP/SGP4

EPOCH          = 2025-11-13T13:14:21.663168
MEAN_MOTION    = 15.49270406
ECCENTRICITY   = .00012167
INCLINATION    = 53.1597
RA_OF_ASC_NODE = 66.5950
ARG_OF_PERICENTER = 119.2335
MEAN_ANOMALY   = 240.8796

EPHEMERIS_TYPE = 0
CLASSIFICATION_TYPE = U
NORAD_CAT_ID   = 66079
ELEMENT_SET_NO = 999
REV_AT_EPOCH   = 511
BSTAR          = .2458499E-2
MEAN_MOTION_DOT = .138545E-2
MEAN_MOTION_DDOT = 0

